NORAD_CAT_ID,OBJECT_NAME,OBJECT_TYPE,EPOCH,MEAN_MOTION,ECCENTRICITY,INCLINATION,RA_OF_ASC_NODE,ARG_OF_PERICENTER,MEAN_ANOMALY,BSTAR,MEAN_MOTION_DOT,MEAN_MOTION_DDOT,TLE_LINE0,TLE_LINE1,TLE_LINE2,SEMIMAJOR_AXIS,PERIOD,APOGEE,PERIGEE,DECAYED
51863.0,STARLINK-3555,PAYLOAD,2024-06-13 04:37:34,15.08843869,0.0001527,53.2195,337.4881,89.61,270.5067,1.0903e-05,-1.14e-06,0.0,0 STARLINK-3555,1 51863U 22022M   24165.19276554 -.00000114  00000-0  10903-4 0  9992,2 51863  53.2195 337.4881 0001527  89.6100 270.5067 15.08843869127327,6917.869,95.437,540.79,538.677,0.0
51863.0,STARLINK-3555,PAYLOAD,2024-06-13 18:56:02,15.08843988,0.0001337,53.2185,334.8112,79.0743,281.0399,0.00016722,2.375e-05,0.0,0 STARLINK-3555,1 51863U 22022M   24165.78892229  .00002375  00000-0  16722-3 0  9994,2 51863  53.2185 334.8112 0001337  79.0743 281.0399 15.08843988127416,6917.868,95.437,540.658,538.808,0.0
51863.0,STARLINK-3555,PAYLOAD,2024-06-14 04:28:21,15.08847458,0.000114,53.2179,333.0279,92.0759,268.0364,4.1172e-05,3.68e-06,0.0,0 STARLINK-3555,1 51863U 22022M   24166.18636082  .00000368  00000-0  41172-4 0  9990,2 51863  53.2179 333.0279 0001140  92.0759 268.0364 15.08847458127477,6917.858,95.437,540.511,538.934,0.0
51863.0,STARLINK-3555,PAYLOAD,2024-06-14 20:22:13,15.08844907,0.0001256,53.2183,330.0502,102.596,257.5172,0.00011357,1.52e-05,0.0,0 STARLINK-3555,1 51863U 22022M   24166.84876265  .00001520  00000-0  11357-3 0  9994,2 51863  53.2183 330.0502 0001256 102.5960 257.5172 15.08844907127574,6917.865,95.437,540.599,538.862,0.0
51863.0,STARLINK-3555,PAYLOAD,2024-06-15 04:19:09,15.08841224,0.000145,53.2181,328.5668,100.8007,259.3148,7.5285e-05,9.1e-06,0.0,0 STARLINK-3555,1 51863U 22022M   24167.17996656  .00000910  00000-0  75285-4 0  9991,2 51863  53.2181 328.5668 0001450 100.8007 259.3148 15.08841224127624,6917.877,95.437,540.745,538.739,0.0
51863.0,STARLINK-3555,PAYLOAD,2024-06-15 17:02:13,15.0884411,0.0001156,53.2184,326.1861,94.6939,265.4185,7.9981e-05,9.85e-06,0.0,0 STARLINK-3555,1 51863U 22022M   24167.70988260  .00000985  00000-0  79981-4 0  9991,2 51863  53.2184 326.1861 0001156  94.6939 265.4185 15.08844110127708,6917.868,95.437,540.533,538.933,0.0
51863.0,STARLINK-3555,PAYLOAD,2024-06-16 13:42:14,15.0884086,0.0001471,53.22,322.3205,102.2155,257.9002,7.2844e-05,8.72e-06,0.0,0 STARLINK-3555,1 51863U 22022M   24168.57100269  .00000872  00000-0  72844-4 0  9998,2 51863  53.2200 322.3205 0001471 102.2155 257.9002 15.08840860127839,6917.878,95.438,540.76,538.725,0.0
51863.0,STARLINK-3555,PAYLOAD,2024-06-16 20:03:46,15.08843746,0.000149,53.2193,321.1312,105.4862,254.6295,8.2858e-05,1.031e-05,0.0,0 STARLINK-3555,1 51863U 22022M   24168.83595978  .00001031  00000-0  82858-4 0  9996,2 51863  53.2193 321.1312 0001490 105.4862 254.6295 15.08843746127875,6917.869,95.437,540.765,538.703,0.0
51863.0,STARLINK-3555,PAYLOAD,2024-06-17 16:43:48,15.08840408,0.0001721,53.2178,317.2695,92.0124,268.1065,1.1663e-05,-1.02e-06,0.0,0 STARLINK-3555,1 51863U 22022M   24169.69708489 -.00000102  00000-0  11663-4 0  9999,2 51863  53.2178 317.2695 0001721  92.0124 268.1065 15.08840408128000,6917.879,95.438,540.935,538.554,0.0
51863.0,STARLINK-3555,PAYLOAD,2024-06-18 13:23:49,15.0883474,0.0001308,53.2174,313.4033,89.8964,270.2178,2.7407e-05,1.48e-06,0.0,0 STARLINK-3555,1 51863U 22022M   24170.55820929  .00000148  00000-0  27407-4 0  9992,2 51863  53.2174 313.4033 0001308  89.8964 270.2178 15.08834740128132,6917.896,95.438,540.666,538.857,0.0
51863.0,STARLINK-3555,PAYLOAD,2024-06-18 14:59:12,15.08837366,0.0001329,53.2178,313.1062,89.9724,270.142,5.1637e-05,5.34e-06,0.0,0 STARLINK-3555,1 51863U 22022M   24170.62444723  .00000534  00000-0  51637-4 0  9995,2 51863  53.2178 313.1062 0001329  89.9724 270.1420 15.08837366128140,6917.888,95.438,540.673,538.834,0.0
51863.0,STARLINK-3555,PAYLOAD,2024-06-19 14:49:59,15.08832086,0.0001227,53.2187,308.6455,90.5628,269.5505,2.9394e-05,1.8e-06,0.0,0 STARLINK-3555,1 51863U 22022M   24171.61805437  .00000180  00000-0  29394-4 0  9990,2 51863  53.2187 308.6455 0001227  90.5628 269.5505 15.08832086128299,6917.905,95.438,540.618,538.921,0.0
51863.0,STARLINK-3555,PAYLOAD,2024-06-19 19:36:08,15.08838741,0.0001296,53.2193,307.7547,96.8642,263.2497,8.0749e-05,9.97e-06,0.0,0 STARLINK-3555,1 51863U 22022M   24171.81676885  .00000997  00000-0  80749-4 0  9992,2 51863  53.2193 307.7547 0001296  96.8642 263.2497 15.08838741128328,6917.884,95.438,540.646,538.853,0.0
51863.0,STARLINK-3555,PAYLOAD,2024-06-20 14:40:47,15.08835794,0.0001154,53.2173,304.1843,95.9661,264.1462,-2.3752e-05,-6.66e-06,0.0,0 STARLINK-3555,1 51863U 22022M   24172.61165730 -.00000666  00000-0 -23752-4 0  9999,2 51863  53.2173 304.1843 0001154  95.9661 264.1462 15.08835794128440,6917.893,95.438,540.557,538.96,0.0
51863.0,STARLINK-3555,PAYLOAD,2024-06-20 16:16:10,15.088387,0.000109,53.2176,303.8876,87.265,272.8467,3.9151e-06,-2.25e-06,0.0,0 STARLINK-3555,1 51863U 22022M   24172.67789516 -.00000225  00000-0  39151-5 0  9990,2 51863  53.2176 303.8876 0001090  87.2650 272.8467 15.08838700128458,6917.884,95.438,540.503,538.995,0.0
51863.0,STARLINK-3555,PAYLOAD,2024-06-21 14:31:34,15.08843133,0.0001179,53.218,299.7223,78.0828,282.0296,1.0731e-05,-1.17e-06,0.0,0 STARLINK-3555,1 51863U 22022M   24173.60525600 -.00000117  00000-0  10731-4 0  9998,2 51863  53.2180 299.7223 0001179  78.0828 282.0296 15.08843133128599,6917.871,95.437,540.551,538.92,0.0
51863.0,STARLINK-3555,PAYLOAD,2024-06-21 17:42:20,15.08840573,0.0001331,53.2189,299.1283,85.9802,274.1342,0.00015285,2.146e-05,0.0,0 STARLINK-3555,1 51863U 22022M   24173.73773344  .00002146  00000-0  15285-3 0  9993,2 51863  53.2189 299.1283 0001331  85.9802 274.1342 15.08840573128619,6917.879,95.438,540.664,538.823,0.0
51863.0,STARLINK-3555,PAYLOAD,2024-06-22 14:22:21,15.08839834,0.0001325,53.2183,295.2654,84.5397,275.5747,0.00012229,1.659e-05,0.0,0 STARLINK-3555,1 51863U 22022M   24174.59885523  .00001659  00000-0  12229-3 0  9994,2 51863  53.2183 295.2654 0001325  84.5397 275.5747 15.08839834128745,6917.881,95.438,540.663,538.829,0.0
51863.0,STARLINK-3555,PAYLOAD,2024-06-22 17:33:06,15.08846989,0.0001454,53.2194,294.6685,113.3447,246.7699,0.00011275,1.507e-05,0.0,0 STARLINK-3555,1 51863U 22022M   24174.73132951  .00001507  00000-0  11275-3 0  9992,2 51863  53.2194 294.6685 0001454 113.3447 246.7699 15.08846989128761,6917.859,95.437,540.73,538.718,0.0
51863.0,STARLINK-3555,PAYLOAD,2024-06-23 12:37:44,15.08846261,0.0001559,53.2173,291.1011,125.2187,234.8951,-4.791e-06,-3.64e-06,0.0,0 STARLINK-3555,1 51863U 22022M   24175.52621199 -.00000364  00000-0 -47910-5 0  9996,2 51863  53.2173 291.1011 0001559 125.2187 234.8951 15.08846261128887,6917.861,95.437,540.805,538.648,0.0
51863.0,STARLINK-3555,PAYLOAD,2024-06-23 14:13:07,15.08847174,0.000149,53.2202,290.8033,104.3523,255.7635,2.9658e-05,1.84e-06,0.0,0 STARLINK-3555,1 51863U 22022M   24175.59245108  .00000184  00000-0  29658-4 0  9991,2 51863  53.2202 290.8033 0001490 104.3523 255.7635 15.08847174128892,6917.858,95.437,540.754,538.693,0.0
51863.0,STARLINK-3555,PAYLOAD,2024-06-24 12:28:30,15.08864209,0.0002002,53.2195,286.6417,118.84,241.2794,-0.00012432,-2.268e-05,0.0,0 STARLINK-3555,1 51863U 22022M   24176.51980120 -.00002268  00000-0 -12432-3 0  9992,2 51863  53.2195 286.6417 0002002 118.8400 241.2794 15.08864209129037,6917.806,95.436,541.056,538.286,0.0
51863.0,STARLINK-3555,PAYLOAD,2024-06-24 14:03:54,15.08853238,0.0001414,53.2193,286.3434,109.3865,250.728,5.4917e-05,5.86e-06,0.0,0 STARLINK-3555,1 51863U 22022M   24176.58604287  .00000586  00000-0  54917-4 0  9990,2 51863  53.2193 286.3434 0001414 109.3865 250.7280 15.08853238129043,6917.84,95.437,540.683,538.727,0.0
51863.0,STARLINK-3555,PAYLOAD,2024-06-25 12:19:18,15.08838394,0.0001416,53.2189,282.1817,116.5624,243.5513,1.2244e-06,-2.68e-06,0.0,0 STARLINK-3555,1 51863U 22022M   24177.51341309 -.00000268  00000-0  12244-5 0  9993,2 51863  53.2189 282.1817 0001416 116.5624 243.5513 15.08838394129182,6917.885,95.438,540.73,538.771,0.0
51863.0,STARLINK-3555,PAYLOAD,2024-06-25 13:54:42,15.08835944,0.000141,53.2191,281.8855,104.6539,255.461,-1.4985e-05,-5.26e-06,0.0,0 STARLINK-3555,1 51863U 22022M   24177.57965567 -.00000526  00000-0 -14985-4 0  9998,2 51863  53.2191 281.8855 0001410 104.6539 255.4610 15.08835944129199,6917.893,95.438,540.733,538.782,0.0
51863.0,STARLINK-3555,PAYLOAD,2024-06-26 10:34:42,15.08845977,0.0001226,53.2182,278.0117,102.605,257.5079,-4.8328e-05,-1.057e-05,0.0,0 STARLINK-3555,1 51863U 22022M   24178.44077012 -.00001057  00000-0 -48328-4 0  9992,2 51863  53.2182 278.0117 0001226 102.6050 257.5079 15.08845977129323,6917.862,95.437,540.575,538.879,0.0
51863.0,STARLINK-3555,PAYLOAD,2024-06-27 13:36:15,15.08847029,0.0001367,53.2171,272.9648,104.6273,255.4871,0.00015228,2.137e-05,0.0,0 STARLINK-3555,1 51863U 22022M   24179.56685133  .00002137  00000-0  15228-3 0  9995,2 51863  53.2171 272.9648 0001367 104.6273 255.4871 15.08847029129493,6917.859,95.437,540.67,538.778,0.0
51863.0,STARLINK-3555,PAYLOAD,2024-06-28 13:27:02,15.0884391,0.0002116,53.2156,268.4996,132.9507,227.1663,0.00020994,3.055e-05,0.0,0 STARLINK-3555,1 51863U 22022M   24180.56044722  .00003055  00000-0  20994-3 0  9996,2 51863  53.2156 268.4996 0002116 132.9507 227.1663 15.08843910129646,6917.868,95.437,541.197,538.27,0.0
51863.0,STARLINK-3555,PAYLOAD,2024-06-28 18:13:11,15.08850033,0.0001285,53.2156,267.6072,111.4826,248.6303,0.00022648,3.319e-05,0.0,0 STARLINK-3555,1 51863U 22022M   24180.75916429  .00003319  00000-0  22648-3 0  9990,2 51863  53.2156 267.6072 0001285 111.4826 248.6303 15.08850033129670,6917.85,95.437,540.604,538.826,0.0
51863.0,STARLINK-3555,PAYLOAD,2024-06-29 05:20:55,15.08845011,0.0001165,53.2164,265.5275,76.5364,283.5758,-9.9872e-05,-1.877e-05,0.0,0 STARLINK-3555,1 51863U 22022M   24181.22286078 -.00001877  00000-0 -99872-4 0  9996,2 51863  53.2164 265.5275 0001165  76.5364 283.5758 15.08845011129746,6917.865,95.437,540.536,538.924,0.0
